2024-095A               
1 59810U 24095A   24153.54026076  .00007398  00000+0  43961-3 0  9990
2 59810  97.6017 228.8491 0010067 226.3805 133.6590 15.11542701  1723
2024-095B               
1 59811U 24095B   24153.54017243  .00003209  00000+0  19322-3 0  9998
2 59811  97.6023 228.8534 0009742 230.4021 129.6350 15.11503910  1721
2024-095C               
1 59812U 24095C   24153.53807083  .00011253  00000+0  66036-3 0  9999
2 59812  97.6008 228.8473 0009188 232.2433 127.7966 15.11873358  1726
2024-095D               
1 59813U 24095D   24153.53637210  .00011972  00000+0  69762-3 0  9990
2 59813  97.6011 228.8507 0008308 230.7590 129.2904 15.12119484  1722
STARLINK-31947          
1 59835U 24097A   24153.58334491 -.00787212  00000+0 -41660-2 0  9991
2 59835  43.0045 358.6246 0001946 277.8735 128.0475 15.81612552  2725
STARLINK-31929          
1 59836U 24097B   24153.58334491 -.00795564  00000+0 -42128-2 0  9991
2 59836  43.0051 358.6199 0001601 275.1342 132.7010 15.81623430  2671
STARLINK-31927          
1 59837U 24097C   24153.58334491 -.00801507  00000+0 -42455-2 0  9990
2 59837  43.0048 358.6148 0001848 277.2267 132.6233 15.81629810  2678
STARLINK-31855          
1 59838U 24097D   24153.58334491 -.00811185  00000+0 -42995-2 0  9993
2 59838  43.0054 358.6102 0002020 267.9369 143.9225 15.81638745  2671
STARLINK-31887          
1 59839U 24097E   24153.58334491 -.00819626  00000+0 -43471-2 0  9992
2 59839  43.0048 358.6049 0001936 268.7132 145.1174 15.81646629  2674
STARLINK-31925          
1 59840U 24097F   24153.58334491 -.00828242  00000+0 -43964-2 0  9995
2 59840  43.0047 358.5995 0002024 271.5320 144.4562 15.81649848  2673
STARLINK-31852          
1 59841U 24097G   24153.58334491 -.00832718  00000+0 -44219-2 0  9993
2 59841  43.0049 358.5944 0001838 273.1439 144.8295 15.81654489  2721
STARLINK-31906          
1 59842U 24097H   24153.58334491 -.00841011  00000+0 -44688-2 0  9990
2 59842  43.0046 358.5896 0001569 276.8623 142.9831 15.81664189  2724
STARLINK-31857          
1 59843U 24097J   24153.58334491 -.00845703  00000+0 -44954-2 0  9999
2 59843  43.0046 358.5844 0001956 277.8041 144.1787 15.81664321  2725
STARLINK-31851          
1 59844U 24097K   24153.58334491 -.00853353  00000+0 -45380-2 0  9994
2 59844  43.0048 358.5794 0001797 277.4033 146.3380 15.81675996  2725
STARLINK-31903          
1 59845U 24097L   24153.58334491 -.00863610  00000+0 -45975-2 0  9992
2 59845  43.0048 358.5739 0002027 271.3749 154.5715 15.81676517  2722
STARLINK-31922          
1 59846U 24097M   24153.58334491 -.00870090  00000+0 -46339-2 0  9998
2 59846  43.0045 358.5695 0002106 271.8307 156.0102 15.81683224  2678
STARLINK-31889          
1 59847U 24097N   24153.58334491 -.00878405  00000+0 -46829-2 0  9991
2 59847  43.0044 358.5640 0001935 277.4254 152.4970 15.81684482  2670
STARLINK-31859          
1 59848U 24097P   24153.58334491 -.00886796  00000+0 -47306-2 0  9995
2 59848  43.0045 358.5589 0002027 271.1328 160.7077 15.81691314  2672
STARLINK-31895          
1 59849U 24097Q   24153.58334491 -.00898727  00000+0 -48004-2 0  9999
2 59849  43.0044 358.5535 0001958 266.8530 167.0527 15.81694869  2679
STARLINK-31899          
1 59850U 24097R   24153.58334491 -.00902382  00000+0 -48228-2 0  9992
2 59850  43.0041 358.5484 0001772 279.3147 156.6237 15.81693343  2676
STARLINK-31896          
1 59851U 24097S   24153.58334491 -.00915030  00000+0 -48971-2 0  9992
2 59851  43.0038 358.5432 0001973 271.6306 166.4304 15.81694139  2725
STARLINK-31897          
1 59852U 24097T   24153.58334491 -.00921888  00000+0 -49373-2 0  9998
2 59852  43.0040 358.5381 0001873 270.7638 169.2314 15.81697537  2670
STARLINK-31892          
1 59853U 24097U   24153.58334491 -.00929403  00000+0 -49833-2 0  9991
2 59853  43.0041 358.5328 0001727 277.2479 164.8876 15.81693602  2679
STARLINK-31891          
1 59854U 24097V   24153.58334491 -.00937983  00000+0 -50332-2 0  9990
2 59854  43.0036 358.5284 0001640 275.5796 168.4194 15.81699866  2729
STARLINK-31882          
1 59855U 24097W   24153.58334491 -.00945371  00000+0 -50783-2 0  9991
2 59855  43.0040 358.5230 0001532 277.7988 168.2786 15.81696991  2724
STARLINK-31691          
1 59856U 24097X   24153.58334491 -.00952416  00000+0 -51192-2 0  9995
2 59856  43.0039 358.5179 0002023 275.6492 172.4204 15.81697024  2672
STARLINK-31569          
1 59857U 24097Y   24153.58334491 -.00995674  00000+0 -53561-2 0  9991
2 59857  42.9976 358.5168 0007828 279.0560 171.0247 15.81696255  2724
STARLINK-31654          
1 59858U 24098A   24153.58334491 -.00753112  00000+0 -35129-2 0  9992
2 59858  43.0068   8.1981 0002010 271.9041 167.1762 15.84181071  2561
STARLINK-31442          
1 59859U 24098B   24153.58334491 -.00755923  00000+0 -35226-2 0  9993
2 59859  43.0069   8.1940 0001878 275.9356 164.7087 15.84209074  1917
STARLINK-31651          
1 59860U 24098C   24153.58334491 -.00764178  00000+0 -35589-2 0  9999
2 59860  43.0067   8.1890 0001920 274.8257 167.7573 15.84241057  1861
