OBJECT_NAME,OBJECT_ID,EPOCH,MEAN_MOTION,ECCENTRICITY,INCLINATION,RA_OF_ASC_NODE,ARG_OF_PERICENTER,MEAN_ANOMALY,EPHEMERIS_TYPE,CLASSIFICATION_TYPE,NORAD_CAT_ID,ELEMENT_SET_NO,REV_AT_EPOCH,BSTAR,MEAN_MOTION_DOT,MEAN_MOTION_DDOT
2024-095A,2024-095A,2024-06-01T12:57:58.529664,15.11542701,0.0010067,97.6017,228.8491,226.3805,133.659,0,U,59810,999,172,0.00043961,7.398e-05,0
2024-095B,2024-095B,2024-06-01T12:57:50.897952,15.1150391,0.0009742,97.6023,228.8534,230.4021,129.635,0,U,59811,999,172,0.00019322,3.209e-05,0
2024-095C,2024-095C,2024-06-01T12:54:49.319712,15.11873358,0.0009188,97.6008,228.8473,232.2433,127.7966,0,U,59812,999,172,0.00066036,0.00011253,0
2024-095D,2024-095D,2024-06-01T12:52:22.549440,15.12119484,0.0008308,97.6011,228.8507,230.759,129.2904,0,U,59813,999,172,0.00069762,0.00011972,0
STARLINK-31947,2024-097A,2024-06-01T14:00:01.000224,15.81612552,0.0001946,43.0045,358.6246,277.8735,128.0475,0,U,59835,999,272,-0.004166,-0.00787212,0
STARLINK-31929,2024-097B,2024-06-01T14:00:01.000224,15.8162343,0.0001601,43.0051,358.6199,275.1342,132.701,0,U,59836,999,267,-0.0042128,-0.00795564,0
STARLINK-31927,2024-097C,2024-06-01T14:00:01.000224,15.8162981,0.0001848,43.0048,358.6148,277.2267,132.6233,0,U,59837,999,267,-0.0042455,-0.00801507,0
STARLINK-31855,2024-097D,2024-06-01T14:00:01.000224,15.81638745,0.000202,43.0054,358.6102,267.9369,143.9225,0,U,59838,999,267,-0.0042995,-0.00811185,0
STARLINK-31887,2024-097E,2024-06-01T14:00:01.000224,15.81646629,0.0001936,43.0048,358.6049,268.7132,145.1174,0,U,59839,999,267,-0.0043471,-0.00819626,0
STARLINK-31925,2024-097F,2024-06-01T14:00:01.000224,15.81649848,0.0002024,43.0047,358.5995,271.532,144.4562,0,U,59840,999,267,-0.0043964,-0.00828242,0
STARLINK-31852,2024-097G,2024-06-01T14:00:01.000224,15.81654489,0.0001838,43.0049,358.5944,273.1439,144.8295,0,U,59841,999,272,-0.0044219,-0.00832718,0
STARLINK-31906,2024-097H,2024-06-01T14:00:01.000224,15.81664189,0.0001569,43.0046,358.5896,276.8623,142.9831,0,U,59842,999,272,-0.0044688,-0.00841011,0
STARLINK-31857,2024-097J,2024-06-01T14:00:01.000224,15.81664321,0.0001956,43.0046,358.5844,277.8041,144.1787,0,U,59843,999,272,-0.0044954,-0.00845703,0
STARLINK-31851,2024-097K,2024-06-01T14:00:01.000224,15.81675996,0.0001797,43.0048,358.5794,277.4033,146.338,0,U,59844,999,272,-0.004538,-0.00853353,0
STARLINK-31903,2024-097L,2024-06-01T14:00:01.000224,15.81676517,0.0002027,43.0048,358.5739,271.3749,154.5715,0,U,59845,999,272,-0.0045975,-0.0086361,0
STARLINK-31922,2024-097M,2024-06-01T14:00:01.000224,15.81683224,0.0002106,43.0045,358.5695,271.8307,156.0102,0,U,59846,999,267,-0.0046339,-0.0087009,0
STARLINK-31889,2024-097N,2024-06-01T14:00:01.000224,15.81684482,0.0001935,43.0044,358.564,277.4254,152.497,0,U,59847,999,267,-0.0046829,-0.00878405,0
STARLINK-31859,2024-097P,2024-06-01T14:00:01.000224,15.81691314,0.0002027,43.0045,358.5589,271.1328,160.7077,0,U,59848,999,267,-0.0047306,-0.00886796,0
STARLINK-31895,2024-097Q,2024-06-01T14:00:01.000224,15.81694869,0.0001958,43.0044,358.5535,266.853,167.0527,0,U,59849,999,267,-0.0048004,-0.00898727,0
STARLINK-31899,2024-097R,2024-06-01T14:00:01.000224,15.81693343,0.0001772,43.0041,358.5484,279.3147,156.6237,0,U,59850,999,267,-0.0048228,-0.00902382,0
STARLINK-31896,2024-097S,2024-06-01T14:00:01.000224,15.81694139,0.0001973,43.0038,358.5432,271.6306,166.4304,0,U,59851,999,272,-0.0048971,-0.0091503,0
STARLINK-31897,2024-097T,2024-06-01T14:00:01.000224,15.81697537,0.0001873,43.004,358.5381,270.7638,169.2314,0,U,59852,999,267,-0.0049373,-0.00921888,0
STARLINK-31892,2024-097U,2024-06-01T14:00:01.000224,15.81693602,0.0001727,43.0041,358.5328,277.2479,164.8876,0,U,59853,999,267,-0.0049833,-0.00929403,0
STARLINK-31891,2024-097V,2024-06-01T14:00:01.000224,15.81699866,0.000164,43.0036,358.5284,275.5796,168.4194,0,U,59854,999,272,-0.0050332,-0.00937983,0
STARLINK-31882,2024-097W,2024-06-01T14:00:01.000224,15.81696991,0.0001532,43.004,358.523,277.7988,168.2786,0,U,59855,999,272,-0.0050783,-0.00945371,0
STARLINK-31691,2024-097X,2024-06-01T14:00:01.000224,15.81697024,0.0002023,43.0039,358.5179,275.6492,172.4204,0,U,59856,999,267,-0.0051192,-0.00952416,0
STARLINK-31569,2024-097Y,2024-06-01T14:00:01.000224,15.81696255,0.0007828,42.9976,358.5168,279.056,171.0247,0,U,59857,999,272,-0.0053561,-0.00995674,0
STARLINK-31654,2024-098A,2024-06-01T14:00:01.000224,15.84181071,0.000201,43.0068,8.1981,271.9041,167.1762,0,U,59858,999,256,-0.0035129,-0.00753112,0
STARLINK-31442,2024-098B,2024-06-01T14:00:01.000224,15.84209074,0.0001878,43.0069,8.194,275.9356,164.7087,0,U,59859,999,191,-0.0035226,-0.00755923,0
STARLINK-31651,2024-098C,2024-06-01T14:00:01.000224,15.84241057,0.000192,43.0067,8.189,274.8257,167.7573,0,U,59860,999,186,-0.0035589,-0.00764178,0
